[{"OBJECT_NAME":"STARLINK-32267","OBJECT_ID":"2024-138J","EPOCH":"2026-03-09T22:39:04.323456","MEAN_MOTION":15.30184186,"ECCENTRICITY":0.00010984,"INCLINATION":53.1598,"RA_OF_ASC_NODE":308.6237,"ARG_OF_PERICENTER":50.5505,"MEAN_ANOMALY":309.5593,"EPHEMERIS_TYPE":0,"CLASSIFICATION_TYPE":"U","NORAD_CAT_ID":60363,"ELEMENT_SET_NO":999,"REV_AT_EPOCH":9066,"BSTAR":3.9905833e-5,"MEAN_MOTION_DOT":8.22e-6,"MEAN_MOTION_DDOT":0},{"OBJECT_NAME":"NUSAT-49 (KLARA DAN VON NEUMANN)","OBJECT_ID":"2024-149AJ","EPOCH":"2026-03-09T19:09:16.004160","MEAN_MOTION":15.30828857,"ECCENTRICITY":0.00011321,"INCLINATION":97.3807,"RA_OF_ASC_NODE":150.738,"ARG_OF_PERICENTER":286.7761,"MEAN_ANOMALY":73.3356,"EPHEMERIS_TYPE":0,"CLASSIFICATION_TYPE":"U","NORAD_CAT_ID":60500,"ELEMENT_SET_NO":999,"REV_AT_EPOCH":8693,"BSTAR":0.00043568345,"MEAN_MOTION_DOT":0.00012912,"MEAN_MOTION_DDOT":0}]
